IRIDIUM 921             
1 24873U 97034E   24157.81166789  .00037046  00000+0  96521-3 0  9997
2 24873  86.3796 293.7442 0002460 288.1105  71.9880 15.38705848473436
IRIDIUM 26              
1 24903U 97043A   24157.55582402  .00000707  00000+0  23494-3 0  9999
2 24903  86.3952 268.6340 0001980  95.2072 264.9351 14.36386461402665
IRIDIUM 22              
1 24907U 97043E   24157.60248849  .00000702  00000+0  23847-3 0  9990
2 24907  86.3953 271.8435 0002196  93.6291 266.5157 14.35275327402733
DUMMY MASS 2            
1 24926U 97048B   24157.84934794  .00000760  00000+0  83811-4 0  9995
2 24926  86.3326 310.7714 0009576  60.5440 299.6739 14.85986912449007
IRIDIUM 29              
1 24944U 97051A   24157.81806272  .00000721  00000+0  24288-3 0  9994
2 24944  86.3935 301.6722 0002323  87.9678 272.1784 14.35722985399250
